OBJECT_NAME,OBJECT_ID,EPOCH,MEAN_MOTION,ECCENTRICITY,INCLINATION,RA_OF_ASC_NODE,ARG_OF_PERICENTER,MEAN_ANOMALY,EPHEMERIS_TYPE,CLASSIFICATION_TYPE,NORAD_CAT_ID,ELEMENT_SET_NO,REV_AT_EPOCH,BSTAR,MEAN_MOTION_DOT,MEAN_MOTION_DDOT
KUIPER-00603,2026-118W,2026-06-15T13:39:11.827296,15.37541553,.00054453,51.8683,61.0864,154.5180,205.6077,0,U,69287,999,373,.3802864E-3,.13865E-3,0
KUIPER-00605,2026-118X,2026-06-15T13:46:38.248320,15.37010154,.00075237,51.8672,61.1190,161.6696,198.4563,0,U,69288,999,373,.393484E-3,.14115E-3,0
KUIPER-00606,2026-118Y,2026-06-15T13:35:41.141760,15.37724960,.00047028,51.8706,61.0704,144.9454,215.1844,0,U,69289,999,373,.37030306E-3,.1357E-3,0
KUIPER-00607,2026-118Z,2026-06-15T13:40:41.352384,15.37407999,.00061097,51.8692,61.0931,155.9965,204.1308,0,U,69290,999,373,.36385362E-3,.1319E-3,0
KUIPER-00608,2026-118AA,2026-06-15T14:01:04.287360,15.35233317,.00086686,51.8613,61.1783,170.9864,189.1278,0,U,69291,999,373,.52402483E-3,.17878E-3,0
KUIPER-00610,2026-118AB,2026-06-15T13:27:01.762848,15.38357057,.00026907,51.8732,61.0280,130.6074,229.5147,0,U,69292,999,373,.39547583E-3,.14827E-3,0
KUIPER-00613,2026-118AC,2026-06-15T14:07:22.245888,15.35018064,.00090642,51.8638,61.2087,179.3714,180.7284,0,U,69293,999,373,-.73533907E-3,-.25698E-3,0
KUIPER-00618,2026-118AD,2026-06-15T13:21:48.999168,15.38628236,.00019078,51.8737,61.0039,84.6328,275.4877,0,U,69294,999,373,.75409357E-3,.28942E-3,0
KUIPER-00620,2026-118AE,2026-06-15T13:26:08.787552,15.38285317,.00029045,51.8728,61.0249,116.7129,243.4155,0,U,69295,999,373,.63757293E-3,.2412E-3,0
STARLINK-37501,2026-119A,2026-06-15T14:00:01.999872,15.72424018,.00015609,97.2846,192.3132,75.9569,356.8687,0,U,69296,999,363,-.11657331E-1,-.1374282E-1,0
STARLINK-37496,2026-119B,2026-06-15T14:00:01.999872,15.71905054,.00014693,97.2845,192.3135,76.2888,357.4467,0,U,69297,999,363,-.23070415E-1,-.2605238E-1,0
STARLINK-37519,2026-119C,2026-06-15T14:00:01.999872,15.71775454,.00014461,97.2846,192.3232,90.6475,3.9514,0,U,69298,999,363,-.10295883E-1,-.1179311E-1,0
STARLINK-37455,2026-119D,2026-06-15T12:25:38.232768,15.63699255,.00009775,97.2839,192.2199,18.6885,341.4410,0,U,69299,999,377,-.11930737E-1,-.100086E-1,0
STARLINK-37456,2026-119E,2026-06-15T14:00:01.999872,15.71878301,.00016498,97.2849,192.3264,80.4020,21.6038,0,U,69300,999,363,-.22706867E-1,-.2567217E-1,0
STARLINK-37630,2026-119F,2026-06-15T14:00:01.999872,15.55298997,.00021189,97.2839,192.2273,108.6303,126.0670,0,U,69301,999,378,-.45827174E-1,-.2726913E-1,0
STARLINK-37804,2026-119G,2026-06-15T14:00:01.999872,15.52748512,.00019865,97.2842,192.2336,101.2321,135.3184,0,U,69302,999,378,-.40376743E-1,-.2203212E-1,0
STARLINK-37730,2026-119H,2026-06-15T13:22:11.210016,15.79749349,.0003988,97.2825,192.3192,309.1062,50.9851,0,U,69303,999,378,-.62337304E-2,-.1014161E-1,0
STARLINK-37731,2026-119J,2026-06-15T14:00:01.999872,15.51884734,.00017532,97.2846,192.2274,89.0636,143.5901,0,U,69304,999,378,-.51686069E-1,-.271607E-1,0
STARLINK-37734,2026-119K,2026-06-15T14:00:01.999872,15.69572283,.00019401,97.2842,192.3285,67.6008,41.4665,0,U,69305,999,378,-.24159474E-1,-.2490383E-1,0
STARLINK-37701,2026-119L,2026-06-15T14:00:01.999872,15.77318194,.00017612,97.2845,192.3449,78.7205,70.6746,0,U,69306,999,378,-.13924045E-1,-.1976482E-1,0
STARLINK-37732,2026-119M,2026-06-15T14:50:38.515776,15.80863796,.0001152,97.2826,192.3892,98.3807,261.7592,0,U,69307,999,379,.83850584E-3,.16388E-2,0
STARLINK-37689,2026-119N,2026-06-15T14:00:01.999872,15.52697883,.00018342,97.2844,192.2337,123.5325,127.0512,0,U,69308,999,378,-.59910497E-1,-.3236484E-1,0
STARLINK-37619,2026-119P,2026-06-15T13:17:01.385664,15.80886898,.00010658,97.2826,192.3243,94.3329,265.8061,0,U,69309,999,378,.9202958E-3,.180413E-2,0
STARLINK-37794,2026-119Q,2026-06-15T14:00:01.999872,15.68087599,.00016934,97.2847,192.3365,84.0350,42.0044,0,U,69310,999,378,-.26290159E-1,-.2540746E-1,0
STARLINK-37795,2026-119R,2026-06-15T14:00:01.999872,15.53489210,.00018519,97.2844,192.2448,101.8915,171.5573,0,U,69311,999,378,-.46162505E-1,-.2588072E-1,0
STARLINK-37790,2026-119S,2026-06-15T14:00:01.999872,15.75165226,.00016492,97.2846,192.3569,91.5021,86.0227,0,U,69312,999,378,-.14221717E-1,-.1853199E-1,0
STARLINK-37676,2026-119T,2026-06-15T11:37:52.242816,15.80860125,.0002173,97.2821,192.2652,42.7140,317.4297,0,U,69313,999,377,.87801124E-3,.171744E-2,0
STARLINK-37617,2026-119U,2026-06-15T14:00:01.999872,15.73898547,.0001623,97.2848,192.3623,95.4473,95.7794,0,U,69314,999,378,-.20704689E-1,-.2496761E-1,0
STARLINK-37627,2026-119V,2026-06-14T18:53:32.152416,15.80230891,.00014259,97.2817,191.5290,72.4250,287.7173,0,U,69315,999,366,-.32968523E-2,-.576083E-2,0
STARLINK-37738,2026-119W,2026-06-15T14:00:01.999872,15.74464385,.00017746,97.2848,192.3588,95.8278,86.4981,0,U,69316,999,378,-.20366065E-1,-.2514215E-1,0
