KUIPER-00603            
1 69287U 26118W   26166.56888689  .00013865  00000+0  38029-3 0  9996
2 69287  51.8683  61.0864 0005445 154.5180 205.6077 15.37541553  3731
KUIPER-00605            
1 69288U 26118X   26166.57405380  .00014115  00000+0  39348-3 0  9995
2 69288  51.8672  61.1190 0007523 161.6696 198.4563 15.37010154  3730
KUIPER-00606            
1 69289U 26118Y   26166.56644840  .00013570  00000+0  37030-3 0  9991
2 69289  51.8706  61.0704 0004702 144.9454 215.1844 15.37724960  3737
KUIPER-00607            
1 69290U 26118Z   26166.56992306  .00013190  00000+0  36385-3 0  9996
2 69290  51.8692  61.0931 0006109 155.9965 204.1308 15.37407999  3730
KUIPER-00608            
1 69291U 26118AA  26166.58407740  .00017878  00000+0  52402-3 0  9997
2 69291  51.8613  61.1783 0008668 170.9864 189.1278 15.35233317  3734
KUIPER-00610            
1 69292U 26118AB  26166.56043707  .00014827  00000+0  39548-3 0  9992
2 69292  51.8732  61.0280 0002690 130.6074 229.5147 15.38357057  3738
KUIPER-00613            
1 69293U 26118AC  26166.58845192 -.00025698  00000+0 -73534-3 0  9996
2 69293  51.8638  61.2087 0009064 179.3714 180.7284 15.35018064  3733
KUIPER-00618            
1 69294U 26118AD  26166.55681712  .00028942  00000+0  75409-3 0  9996
2 69294  51.8737  61.0039 0001907  84.6328 275.4877 15.38628236  3737
KUIPER-00620            
1 69295U 26118AE  26166.55982393  .00024120  00000+0  63757-3 0  9993
2 69295  51.8728  61.0249 0002904 116.7129 243.4155 15.38285317  3738
STARLINK-37501          
1 69296U 26119A   26166.58335648 -.01374282  00000+0 -11657-1 0  9993
2 69296  97.2846 192.3132 0001560  75.9569 356.8687 15.72424018  3633
STARLINK-37496          
1 69297U 26119B   26166.58335648 -.02605238  00000+0 -23070-1 0  9995
2 69297  97.2845 192.3135 0001469  76.2888 357.4467 15.71905054  3638
STARLINK-37519          
1 69298U 26119C   26166.58335648 -.01179311  00000+0 -10296-1 0  9999
2 69298  97.2846 192.3232 0001446  90.6475   3.9514 15.71775454  3630
STARLINK-37455          
1 69299U 26119D   26166.51780362 -.01000860  00000+0 -11931-1 0  9999
2 69299  97.2839 192.2199 0000977  18.6885 341.4410 15.63699255  3772
STARLINK-37456          
1 69300U 26119E   26166.58335648 -.02567217  00000+0 -22707-1 0  9990
2 69300  97.2849 192.3264 0001649  80.4020  21.6038 15.71878301  3633
STARLINK-37630          
1 69301U 26119F   26166.58335648 -.02726913  00000+0 -45827-1 0  9999
2 69301  97.2839 192.2273 0002118 108.6303 126.0670 15.55298997  3788
STARLINK-37804          
1 69302U 26119G   26166.58335648 -.02203212  00000+0 -40377-1 0  9997
2 69302  97.2842 192.2336 0001986 101.2321 135.3184 15.52748512  3787
STARLINK-37730          
1 69303U 26119H   26166.55707419 -.01014161  00000+0 -62337-2 0  9997
2 69303  97.2825 192.3192 0003988 309.1062  50.9851 15.79749349  3786
STARLINK-37731          
1 69304U 26119J   26166.58335648 -.02716070  00000+0 -51686-1 0  9995
2 69304  97.2846 192.2274 0001753  89.0636 143.5901 15.51884734  3782
STARLINK-37734          
1 69305U 26119K   26166.58335648 -.02490383  00000+0 -24159-1 0  9997
2 69305  97.2842 192.3285 0001940  67.6008  41.4665 15.69572283  3780
STARLINK-37701          
1 69306U 26119L   26166.58335648 -.01976482  00000+0 -13924-1 0  9994
2 69306  97.2845 192.3449 0001761  78.7205  70.6746 15.77318194  3781
STARLINK-37732          
1 69307U 26119M   26166.61850134  .00163880  00000+0  83851-3 0  9996
2 69307  97.2826 192.3892 0001152  98.3807 261.7592 15.80863796  3793
STARLINK-37689          
1 69308U 26119N   26166.58335648 -.03236484  00000+0 -59910-1 0  9994
2 69308  97.2844 192.2337 0001834 123.5325 127.0512 15.52697883  3786
STARLINK-37619          
1 69309U 26119P   26166.55348826  .00180413  00000+0  92030-3 0  9991
2 69309  97.2826 192.3243 0001065  94.3329 265.8061 15.80886898  3786
STARLINK-37794          
1 69310U 26119Q   26166.58335648 -.02540746  00000+0 -26290-1 0  9990
2 69310  97.2847 192.3365 0001693  84.0350  42.0044 15.68087599  3786
STARLINK-37795          
1 69311U 26119R   26166.58335648 -.02588072  00000+0 -46163-1 0  9996
2 69311  97.2844 192.2448 0001851 101.8915 171.5573 15.53489210  3781
STARLINK-37790          
1 69312U 26119S   26166.58335648 -.01853199  00000+0 -14222-1 0  9992
2 69312  97.2846 192.3569 0001649  91.5021  86.0227 15.75165226  3785
STARLINK-37676          
1 69313U 26119T   26166.48463244  .00171744  00000+0  87801-3 0  9997
2 69313  97.2821 192.2652 0002173  42.7140 317.4297 15.80860125  3777
STARLINK-37617          
1 69314U 26119U   26166.58335648 -.02496761  00000+0 -20705-1 0  9996
2 69314  97.2848 192.3623 0001623  95.4473  95.7794 15.73898547  3789
STARLINK-37627          
1 69315U 26119V   26165.78717769 -.00576083  00000+0 -32969-2 0  9996
2 69315  97.2817 191.5290 0001425  72.4250 287.7173 15.80230891  3666
STARLINK-37738          
1 69316U 26119W   26166.58335648 -.02514215  00000+0 -20366-1 0  9996
2 69316  97.2848 192.3588 0001774  95.8278  86.4981 15.74464385  3780
